NORAD_CAT_ID,OBJECT_NAME,OBJECT_TYPE,EPOCH,MEAN_MOTION,ECCENTRICITY,INCLINATION,RA_OF_ASC_NODE,ARG_OF_PERICENTER,MEAN_ANOMALY,BSTAR,MEAN_MOTION_DOT,MEAN_MOTION_DDOT,TLE_LINE0,TLE_LINE1,TLE_LINE2,SEMIMAJOR_AXIS,PERIOD,APOGEE,PERIGEE,DECAYED
53038.0,STARLINK-4156,PAYLOAD,2022-08-24 16:00:00,15.73197216,0.0002018,53.2176,141.417,32.0247,341.2340000000001,0.00050528,0.00070887,0.0,0 STARLINK-4156,1 53038U 22076BE  22236.66667824  .00070887  00000-0  50528-3 0  9999,2 53038  53.2176 141.4170 0002018  32.0247 341.2340 15.73197216  8065,6727.903,91.533,351.126,348.41,0.0
53038.0,STARLINK-4156,PAYLOAD,2022-08-24 22:00:00,15.73295715,0.0002145999999999,53.2176,140.1739,27.9964,321.9655,-0.00091288,-0.00127353,0.0,0 STARLINK-4156,1 53038U 22076BE  22236.91667824 -.00127353  00000-0 -91288-3 0  9998,2 53038  53.2176 140.1739 0002146  27.9964 321.9655 15.73295715  1300,6727.621999999999,91.528,350.931,348.0440000000001,0.0
53038.0,STARLINK-4156,PAYLOAD,2022-08-25 06:00:02,15.73207312,0.0002026999999999,53.2172,138.5108,31.6135,47.2445,-2.6895e-05,-4.395e-05,0.0,0 STARLINK-4156,1 53038U 22076BE  22237.25002315 -.00004395  00000-0 -26895-4 0  9997,2 53038  53.2172 138.5108 0002027  31.6135  47.2445 15.73207312  8158,6727.874,91.533,351.103,348.376,0.0
53038.0,STARLINK-4156,PAYLOAD,2022-08-25 14:00:01,15.73178866,0.0002142,53.2169,136.8812,39.3865,128.4195,0.00054108,0.00075941,0.0,0 STARLINK-4156,1 53038U 22076BE  22237.58334491  .00075941  00000-0  54108-3 0  9996,2 53038  53.2169 136.8812 0002142  39.3865 128.4195 15.73178866  8201,6727.955,91.534,351.26199999999994,348.379,0.0
53038.0,STARLINK-4156,PAYLOAD,2022-08-25 22:00:00,15.73268995,0.0002229,53.2174,135.2334,37.446,219.2879,-0.00065283,-0.00091532,0.0,0 STARLINK-4156,1 53038U 22076BE  22237.91667824 -.00091532  00000-0 -65283-3 0  9994,2 53038  53.2174 135.2334 0002229  37.4460 219.2879 15.73268995  1300,6727.698,91.529,351.06300000000016,348.064,0.0
53038.0,STARLINK-4156,PAYLOAD,2022-08-26 06:00:00,15.7317733,0.0002255999999999,53.2172,133.5844,30.4282,315.2592,0.00024713,0.00034172,0.0,0 STARLINK-4156,1 53038U 22076BE  22238.25001157  .00034172  00000-0  24713-3 0  9991,2 53038  53.2172 133.5844 0002256  30.4282 315.2592 15.73177330  8319,6727.96,91.534,351.343,348.307,0.0
53038.0,STARLINK-4156,PAYLOAD,2022-08-26 14:00:01,15.73173704,0.0002053,53.2173,131.9329,35.5534,39.1215,0.00050521,0.00070805,0.0,0 STARLINK-4156,1 53038U 22076BE  22238.58335648  .00070805  00000-0  50521-3 0  9991,2 53038  53.2173 131.9329 0002053  35.5534  39.1215 15.73173704  1308,6727.97,91.535,351.216,348.454,0.0
53038.0,STARLINK-4156,PAYLOAD,2022-08-26 22:00:00,15.73250146,0.000217,53.2171,130.285,33.6234,129.9143,-0.00036909,-0.00052217,0.0,0 STARLINK-4156,1 53038U 22076BE  22238.91667824 -.00052217  00000-0 -36909-3 0  9995,2 53038  53.2171 130.2850 0002170  33.6234 129.9143 15.73250146  1307,6727.752,91.53,351.077,348.157,0.0
53038.0,STARLINK-4156,PAYLOAD,2022-08-27 14:00:01,15.73177092,0.0001827,53.2165,126.9845,30.664,310.7819,0.00062725,0.00088255,0.0,0 STARLINK-4156,1 53038U 22076BE  22239.58334491  .00088255  00000-0  62725-3 0  9994,2 53038  53.2165 126.9845 0001827  30.6640 310.7819 15.73177092  1300,6727.96,91.535,351.055,348.596,0.0
53038.0,STARLINK-4156,PAYLOAD,2022-08-27 22:00:00,15.73262307,0.0001966,53.2167,125.3368,26.7883,43.5737,-0.00075428,-0.00105452,0.0,0 STARLINK-4156,1 53038U 22076BE  22239.91667824 -.00105452  00000-0 -75428-3 0  9995,2 53038  53.2167 125.3368 0001966  26.7883  43.5737 15.73262307  8574,6727.718000000003,91.53,350.905,348.26,0.0
53038.0,STARLINK-4156,PAYLOAD,2022-08-28 06:00:00,15.73212353,0.0002008,53.2167,123.6875,22.711,136.6179,-4.6037e-05,-7.081e-05,0.0,0 STARLINK-4156,1 53038U 22076BE  22240.25001157 -.00007081  00000-0 -46037-4 0  9999,2 53038  53.2167 123.6875 0002008  22.7110 136.6179 15.73212353  8621,6727.86,91.532,351.076,348.374,0.0
53038.0,STARLINK-4156,PAYLOAD,2022-08-28 14:00:01,15.73175379,0.0001871,53.2167,122.0359,29.1573,219.1309,0.00029138,0.00040428,0.0,0 STARLINK-4156,1 53038U 22076BE  22240.58334491  .00040428  00000-0  29138-3 0  9997,2 53038  53.2167 122.0359 0001871  29.1573 219.1309 15.73175379  1308,6727.965,91.535,351.089,348.57199999999995,0.0
53038.0,STARLINK-4156,PAYLOAD,2022-08-28 22:00:00,15.7319162,0.0002089999999999,53.2164,120.3882,29.6214,307.5598,6.505600000000001e-05,8.516e-05,0.0,0 STARLINK-4156,1 53038U 22076BE  22240.91667824  .00008516  00000-0  65056-4 0  9995,2 53038  53.2164 120.3882 0002090  29.6214 307.5598 15.73191620  1307,6727.919,91.534,351.19,348.37800000000016,0.0
53038.0,STARLINK-4156,PAYLOAD,2022-08-29 06:00:02,15.73231309,0.0002056,53.2157,118.7386,25.0181,41.1405,-0.00065458,-0.00091625,0.0,0 STARLINK-4156,1 53038U 22076BE  22241.25002315 -.00091625  00000-0 -65458-3 0  9991,2 53038  53.2157 118.7386 0002056  25.0181  41.1405 15.73231309  8780,6727.806,91.531,351.05400000000014,348.288,0.0
53038.0,STARLINK-4156,PAYLOAD,2022-08-29 14:00:01,15.73148841,0.0001716,53.2158,117.0874,26.7752,128.2508,0.00052876,0.00074083,0.0,0 STARLINK-4156,1 53038U 22076BE  22241.58334491  .00074083  00000-0  52876-3 0  9997,2 53038  53.2158 117.0874 0001716  26.7752 128.2508 15.73148841  1309,6728.041,91.536,351.061,348.75199999999984,0.0
53038.0,STARLINK-4156,PAYLOAD,2022-08-29 16:00:00,15.73169725,0.0001726,53.2161,116.6752,27.4323,239.8054,0.00032221,0.00044783,0.0,0 STARLINK-4156,1 53038U 22076BE  22241.66667824  .00044783  00000-0  32221-3 0  9991,2 53038  53.2161 116.6752 0001726  27.4323 239.8054 15.73169725  8841,6727.981,91.535,351.0080000000001,348.685,0.0
53038.0,STARLINK-4156,PAYLOAD,2022-08-29 22:00:00,15.73191985,0.0001955,53.2159,115.4399,24.7903,219.1284,9.2266e-05,0.00012343,0.0,0 STARLINK-4156,1 53038U 22076BE  22241.91667824  .00012343  00000-0  92266-4 0  9992,2 53038  53.2159 115.4399 0001955  24.7903 219.1284 15.73191985  1303,6727.918000000002,91.534,351.098,348.468,0.0
53038.0,STARLINK-4156,PAYLOAD,2022-08-30 14:00:01,15.73248416,0.0001976,53.2162,112.1385,33.6839,28.1377,-0.00076179,-0.00106421,0.0,0 STARLINK-4156,1 53038U 22076BE  22242.58334491 -.00106421  00000-0 -76179-3 0  9994,2 53038  53.2162 112.1385 0001976  33.6839  28.1377 15.73248416  1309,6727.757,91.53,350.952,348.293,0.0
53038.0,STARLINK-4156,PAYLOAD,2022-08-30 22:00:00,15.73162922,0.0002323,53.2159,110.4909,37.1349,113.6334,2.2964e-05,2.598e-05,0.0,0 STARLINK-4156,1 53038U 22076BE  22242.91667824  .00002598  00000-0  22964-4 0  9992,2 53038  53.2159 110.4909 0002323  37.1349 113.6334 15.73162922  1300,6728.001,91.535,351.42900000000014,348.30300000000005,0.0
53038.0,STARLINK-4156,PAYLOAD,2022-08-31 14:00:01,15.73210007,0.0001972,53.2157,107.19,39.4095,289.1477,-0.00018696,-0.00026789,0.0,0 STARLINK-4156,1 53038U 22076BE  22243.58334491 -.00026789  00000-0 -18696-3 0  9993,2 53038  53.2157 107.1900 0001972  39.4095 289.1477 15.73210007  1309,6727.8669999999975,91.533,351.05800000000005,348.405,0.0
53038.0,STARLINK-4156,PAYLOAD,2022-08-31 22:00:00,15.73163203,0.0002095,53.2159,105.5426,32.8189,24.6751,0.00015645,0.00021358,0.0,0 STARLINK-4156,1 53038U 22076BE  22243.91667824  .00021358  00000-0  15645-3 0  9995,2 53038  53.2159 105.5426 0002095  32.8189  24.6751 15.73163203  1306,6728.0,91.535,351.275,348.456,0.0
53038.0,STARLINK-4156,PAYLOAD,2022-09-01 14:00:01,15.73207195,0.0001921,53.2163,102.2412,35.2881,200.0945,0.00047182,0.00066142,0.0,0 STARLINK-4156,1 53038U 22076BE  22244.58335648  .00066142  00000-0  47182-3 0  9996,2 53038  53.2163 102.2412 0001921  35.2881 200.0945 15.73207195  1307,6727.875,91.533,351.032,348.44699999999995,0.0
53038.0,STARLINK-4156,PAYLOAD,2022-09-01 22:00:00,15.73262524,0.0002117,53.2162,100.5938,30.4321,293.8489,-0.00050498,-0.00071092,0.0,0 STARLINK-4156,1 53038U 22076BE  22244.91667824 -.00071092  00000-0 -50498-3 0  9993,2 53038  53.2162 100.5938 0002117  30.4321 293.8489 15.73262524  1304,6727.717,91.53,351.006,348.158,0.0
53038.0,STARLINK-4156,PAYLOAD,2022-09-02 06:00:00,15.73221666,0.0002005999999999,53.2158,98.9434,27.8587,25.3844,-5.336100000000001e-05,-8.109999999999999e-05,0.0,0 STARLINK-4156,1 53038U 22076BE  22245.25001157 -.00008110  00000-0 -53361-4 0  9996,2 53038  53.2158  98.9434 0002006  27.8587  25.3844 15.73221666  9416,6727.833000000001,91.532,351.048,348.349,0.0
53038.0,STARLINK-4156,PAYLOAD,2022-09-02 14:00:01,15.73232707,0.0001871,53.2162,97.2928,34.5776,107.6214,-0.00027014,-0.00038416,0.0,0 STARLINK-4156,1 53038U 22076BE  22245.58334491 -.00038416  00000-0 -27014-3 0  9999,2 53038  53.2162  97.2928 0001871  34.5776 107.6214 15.73232707  1308,6727.802,91.531,350.926,348.408,0.0
53038.0,STARLINK-4156,PAYLOAD,2022-09-02 22:00:01,15.73208394,0.0002093,53.2164,95.6454,30.5734,200.6291,-0.00048143,-0.00067676,0.0,0 STARLINK-4156,1 53038U 22076BE  22245.91668981 -.00067676  00000-0 -48143-3 0  9996,2 53038  53.2164  95.6454 0002093  30.5734 200.6291 15.73208394  1307,6727.871,91.533,351.144,348.32800000000015,0.0
53038.0,STARLINK-4156,PAYLOAD,2022-09-03 08:00:01,15.7316138,0.0001875999999999,53.2169,93.582,26.7624,45.517,0.00025606,0.00035409,0.0,0 STARLINK-4156,1 53038U 22076BE  22246.33334491  .00035409  00000-0  25606-3 0  9995,2 53038  53.2169  93.5820 0001876  26.7624  45.5170 15.73161380  9582,6728.005,91.535,351.13199999999995,348.608,0.0
53038.0,STARLINK-4156,PAYLOAD,2022-09-03 14:00:01,15.73183832,0.0001899999999999,53.217,92.3445,30.817,18.1288,0.00035852,0.00049962,0.0,0 STARLINK-4156,1 53038U 22076BE  22246.58334491  .00049962  00000-0  35852-3 0  9995,2 53038  53.2170  92.3445 0001900  30.8170  18.1288 15.73183832  1308,6727.941,91.534,351.085,348.528,0.0
53038.0,STARLINK-4156,PAYLOAD,2022-09-03 22:00:00,15.73220474,0.0002133999999999,53.2168,90.697,26.1342,111.7674,0.00045318,0.00063522,0.0,0 STARLINK-4156,1 53038U 22076BE  22246.91667824  .00063522  00000-0  45318-3 0  9997,2 53038  53.2168  90.6970 0002134  26.1342 111.7674 15.73220474  9679,6727.837,91.532,351.13800000000015,348.266,0.0
